<?xml version="1.0" encoding="UTF-8"?>
<TrainingCenterDatabase xmlns="http://www.garmin.com/xmlschemas/TrainingCenterDatabase/v2">
  <Activities>
    <Activity Sport="Running">
      <Id>2026-07-05T07:30:00.000Z</Id>
      <Lap StartTime="2026-07-05T07:30:00.000Z">
        <TotalTimeSeconds>1200</TotalTimeSeconds>
        <DistanceMeters>5000</DistanceMeters>
        <Calories>350</Calories>
        <AverageHeartRateBpm><Value>145</Value></AverageHeartRateBpm>
        <MaximumHeartRateBpm><Value>165</Value></MaximumHeartRateBpm>
        <Intensity>Active</Intensity>
        <TriggerMethod>Manual</TriggerMethod>
        <Track>
          <Trackpoint>
            <Time>2026-07-05T07:30:00.000Z</Time>
            <Position><LatitudeDegrees>1.2966</LatitudeDegrees><LongitudeDegrees>103.7764</LongitudeDegrees></Position>
            <AltitudeMeters>12.0</AltitudeMeters>
            <DistanceMeters>0</DistanceMeters>
            <HeartRateBpm><Value>72</Value></HeartRateBpm>
            <Cadence>0</Cadence>
          </Trackpoint>
          <Trackpoint>
            <Time>2026-07-05T07:30:05.000Z</Time>
            <Position><LatitudeDegrees>1.2967</LatitudeDegrees><LongitudeDegrees>103.7765</LongitudeDegrees></Position>
            <AltitudeMeters>12.5</AltitudeMeters>
            <DistanceMeters>15</DistanceMeters>
            <HeartRateBpm><Value>78</Value></HeartRateBpm>
            <Cadence>82</Cadence>
          </Trackpoint>
          <Trackpoint>
            <Time>2026-07-05T07:30:10.000Z</Time>
            <Position><LatitudeDegrees>1.2968</LatitudeDegrees><LongitudeDegrees>103.7766</LongitudeDegrees></Position>
            <AltitudeMeters>13.0</AltitudeMeters>
            <DistanceMeters>35</DistanceMeters>
            <HeartRateBpm><Value>85</Value></HeartRateBpm>
            <Cadence>86</Cadence>
          </Trackpoint>
          <Trackpoint>
            <Time>2026-07-05T07:30:20.000Z</Time>
            <Position><LatitudeDegrees>1.2970</LatitudeDegrees><LongitudeDegrees>103.7768</LongitudeDegrees></Position>
            <AltitudeMeters>14.0</AltitudeMeters>
            <DistanceMeters>80</DistanceMeters>
            <HeartRateBpm><Value>92</Value></HeartRateBpm>
            <Cadence>88</Cadence>
          </Trackpoint>
          <Trackpoint>
            <Time>2026-07-05T07:30:30.000Z</Time>
            <Position><LatitudeDegrees>1.2972</LatitudeDegrees><LongitudeDegrees>103.7770</LongitudeDegrees></Position>
            <AltitudeMeters>15.0</AltitudeMeters>
            <DistanceMeters>130</DistanceMeters>
            <HeartRateBpm><Value>98</Value></HeartRateBpm>
            <Cadence>89</Cadence>
          </Trackpoint>
          <Trackpoint>
            <Time>2026-07-05T07:31:00.000Z</Time>
            <Position><LatitudeDegrees>1.2978</LatitudeDegrees><LongitudeDegrees>103.7776</LongitudeDegrees></Position>
            <AltitudeMeters>17.0</AltitudeMeters>
            <DistanceMeters>280</DistanceMeters>
            <HeartRateBpm><Value>105</Value></HeartRateBpm>
            <Cadence>90</Cadence>
          </Trackpoint>
          <Trackpoint>
            <Time>2026-07-05T07:32:00.000Z</Time>
            <Position><LatitudeDegrees>1.2988</LatitudeDegrees><LongitudeDegrees>103.7786</LongitudeDegrees></Position>
            <AltitudeMeters>20.0</AltitudeMeters>
            <DistanceMeters>530</DistanceMeters>
            <HeartRateBpm><Value>112</Value></HeartRateBpm>
            <Cadence>91</Cadence>
          </Trackpoint>
          <Trackpoint>
            <Time>2026-07-05T07:33:00.000Z</Time>
            <Position><LatitudeDegrees>1.2998</LatitudeDegrees><LongitudeDegrees>103.7796</LongitudeDegrees></Position>
            <AltitudeMeters>25.0</AltitudeMeters>
            <DistanceMeters>780</DistanceMeters>
            <HeartRateBpm><Value>118</Value></HeartRateBpm>
            <Cadence>91</Cadence>
          </Trackpoint>
          <Trackpoint>
            <Time>2026-07-05T07:34:00.000Z</Time>
            <Position><LatitudeDegrees>1.3008</LatitudeDegrees><LongitudeDegrees>103.7806</LongitudeDegrees></Position>
            <AltitudeMeters>30.0</AltitudeMeters>
            <DistanceMeters>1030</DistanceMeters>
            <HeartRateBpm><Value>122</Value></HeartRateBpm>
            <Cadence>90</Cadence>
          </Trackpoint>
          <Trackpoint>
            <Time>2026-07-05T07:35:00.000Z</Time>
            <Position><LatitudeDegrees>1.3018</LatitudeDegrees><LongitudeDegrees>103.7816</LongitudeDegrees></Position>
            <AltitudeMeters>32.0</AltitudeMeters>
            <DistanceMeters>1280</DistanceMeters>
            <HeartRateBpm><Value>125</Value></HeartRateBpm>
            <Cadence>90</Cadence>
          </Trackpoint>
          <Trackpoint>
            <Time>2026-07-05T07:36:00.000Z</Time>
            <Position><LatitudeDegrees>1.3028</LatitudeDegrees><LongitudeDegrees>103.7826</LongitudeDegrees></Position>
            <AltitudeMeters>35.0</AltitudeMeters>
            <DistanceMeters>1530</DistanceMeters>
            <HeartRateBpm><Value>128</Value></HeartRateBpm>
            <Cadence>89</Cadence>
          </Trackpoint>
          <Trackpoint>
            <Time>2026-07-05T07:37:00.000Z</Time>
            <Position><LatitudeDegrees>1.3038</LatitudeDegrees><LongitudeDegrees>103.7836</LongitudeDegrees></Position>
            <AltitudeMeters>38.0</AltitudeMeters>
            <DistanceMeters>1780</DistanceMeters>
            <HeartRateBpm><Value>130</Value></HeartRateBpm>
            <Cadence>89</Cadence>
          </Trackpoint>
          <Trackpoint>
            <Time>2026-07-05T07:38:00.000Z</Time>
            <Position><LatitudeDegrees>1.3048</LatitudeDegrees><LongitudeDegrees>103.7846</LongitudeDegrees></Position>
            <AltitudeMeters>40.0</AltitudeMeters>
            <DistanceMeters>2030</DistanceMeters>
            <HeartRateBpm><Value>132</Value></HeartRateBpm>
            <Cadence>88</Cadence>
          </Trackpoint>
          <Trackpoint>
            <Time>2026-07-05T07:39:00.000Z</Time>
            <Position><LatitudeDegrees>1.3058</LatitudeDegrees><LongitudeDegrees>103.7856</LongitudeDegrees></Position>
            <AltitudeMeters>42.0</AltitudeMeters>
            <DistanceMeters>2280</DistanceMeters>
            <HeartRateBpm><Value>134</Value></HeartRateBpm>
            <Cadence>87</Cadence>
          </Trackpoint>
          <Trackpoint>
            <Time>2026-07-05T07:40:00.000Z</Time>
            <Position><LatitudeDegrees>1.3068</LatitudeDegrees><LongitudeDegrees>103.7866</LongitudeDegrees></Position>
            <AltitudeMeters>43.0</AltitudeMeters>
            <DistanceMeters>2530</DistanceMeters>
            <HeartRateBpm><Value>135</Value></HeartRateBpm>
            <Cadence>86</Cadence>
          </Trackpoint>
          <Trackpoint>
            <Time>2026-07-05T07:41:00.000Z</Time>
            <Position><LatitudeDegrees>1.3078</LatitudeDegrees><LongitudeDegrees>103.7876</LongitudeDegrees></Position>
            <AltitudeMeters>42.0</AltitudeMeters>
            <DistanceMeters>2780</DistanceMeters>
            <HeartRateBpm><Value>136</Value></HeartRateBpm>
            <Cadence>85</Cadence>
          </Trackpoint>
          <Trackpoint>
            <Time>2026-07-05T07:42:00.000Z</Time>
            <Position><LatitudeDegrees>1.3088</LatitudeDegrees><LongitudeDegrees>103.7886</LongitudeDegrees></Position>
            <AltitudeMeters>40.0</AltitudeMeters>
            <DistanceMeters>3030</DistanceMeters>
            <HeartRateBpm><Value>138</Value></HeartRateBpm>
            <Cadence>84</Cadence>
          </Trackpoint>
          <Trackpoint>
            <Time>2026-07-05T07:43:00.000Z</Time>
            <Position><LatitudeDegrees>1.3098</LatitudeDegrees><LongitudeDegrees>103.7896</LongitudeDegrees></Position>
            <AltitudeMeters>37.0</AltitudeMeters>
            <DistanceMeters>3280</DistanceMeters>
            <HeartRateBpm><Value>140</Value></HeartRateBpm>
            <Cadence>83</Cadence>
          </Trackpoint>
          <Trackpoint>
            <Time>2026-07-05T07:44:00.000Z</Time>
            <Position><LatitudeDegrees>1.3108</LatitudeDegrees><LongitudeDegrees>103.7906</LongitudeDegrees></Position>
            <AltitudeMeters>34.0</AltitudeMeters>
            <DistanceMeters>3530</DistanceMeters>
            <HeartRateBpm><Value>142</Value></HeartRateBpm>
            <Cadence>82</Cadence>
          </Trackpoint>
          <Trackpoint>
            <Time>2026-07-05T07:45:00.000Z</Time>
            <Position><LatitudeDegrees>1.3118</LatitudeDegrees><LongitudeDegrees>103.7916</LongitudeDegrees></Position>
            <AltitudeMeters>31.0</AltitudeMeters>
            <DistanceMeters>3780</DistanceMeters>
            <HeartRateBpm><Value>144</Value></HeartRateBpm>
            <Cadence>81</Cadence>
          </Trackpoint>
          <Trackpoint>
            <Time>2026-07-05T07:46:00.000Z</Time>
            <Position><LatitudeDegrees>1.3128</LatitudeDegrees><LongitudeDegrees>103.7926</LongitudeDegrees></Position>
            <AltitudeMeters>28.0</AltitudeMeters>
            <DistanceMeters>4030</DistanceMeters>
            <HeartRateBpm><Value>146</Value></HeartRateBpm>
            <Cadence>80</Cadence>
          </Trackpoint>
          <Trackpoint>
            <Time>2026-07-05T07:47:00.000Z</Time>
            <Position><LatitudeDegrees>1.3138</LatitudeDegrees><LongitudeDegrees>103.7936</LongitudeDegrees></Position>
            <AltitudeMeters>25.0</AltitudeMeters>
            <DistanceMeters>4280</DistanceMeters>
            <HeartRateBpm><Value>148</Value></HeartRateBpm>
            <Cadence>79</Cadence>
          </Trackpoint>
          <Trackpoint>
            <Time>2026-07-05T07:48:00.000Z</Time>
            <Position><LatitudeDegrees>1.3148</LatitudeDegrees><LongitudeDegrees>103.7946</LongitudeDegrees></Position>
            <AltitudeMeters>22.0</AltitudeMeters>
            <DistanceMeters>4530</DistanceMeters>
            <HeartRateBpm><Value>150</Value></HeartRateBpm>
            <Cadence>78</Cadence>
          </Trackpoint>
          <Trackpoint>
            <Time>2026-07-05T07:49:00.000Z</Time>
            <Position><LatitudeDegrees>1.3158</LatitudeDegrees><LongitudeDegrees>103.7956</LongitudeDegrees></Position>
            <AltitudeMeters>20.0</AltitudeMeters>
            <DistanceMeters>4780</DistanceMeters>
            <HeartRateBpm><Value>152</Value></HeartRateBpm>
            <Cadence>77</Cadence>
          </Trackpoint>
          <Trackpoint>
            <Time>2026-07-05T07:50:00.000Z</Time>
            <Position><LatitudeDegrees>1.3168</LatitudeDegrees><LongitudeDegrees>103.7966</LongitudeDegrees></Position>
            <AltitudeMeters>18.0</AltitudeMeters>
            <DistanceMeters>5000</DistanceMeters>
            <HeartRateBpm><Value>155</Value></HeartRateBpm>
            <Cadence>76</Cadence>
          </Trackpoint>
        </Track>
      </Lap>
    </Activity>
  </Activities>
</TrainingCenterDatabase>
